[{"OBJECT_NAME":"STARLINK-1559","OBJECT_ID":"2020-055BC","EPOCH":"2026-03-09T05:36:23.522976","MEAN_MOTION":15.29461733,"ECCENTRICITY":0.0004229,"INCLINATION":53.0254,"RA_OF_ASC_NODE":76.0659,"ARG_OF_PERICENTER":33.971,"MEAN_ANOMALY":326.1559,"EPHEMERIS_TYPE":0,"CLASSIFICATION_TYPE":"U","NORAD_CAT_ID":46077,"ELEMENT_SET_NO":999,"REV_AT_EPOCH":30951,"BSTAR":0.0014778793,"MEAN_MOTION_DOT":0.00042685,"MEAN_MOTION_DDOT":0},{"OBJECT_NAME":"STARLINK-33795","OBJECT_ID":"2025-069AA","EPOCH":"2026-03-09T12:08:05.307936","MEAN_MOTION":15.30204388,"ECCENTRICITY":0.0001658,"INCLINATION":53.1576,"RA_OF_ASC_NODE":143.5282,"ARG_OF_PERICENTER":67.7727,"MEAN_ANOMALY":292.345,"EPHEMERIS_TYPE":0,"CLASSIFICATION_TYPE":"U","NORAD_CAT_ID":63457,"ELEMENT_SET_NO":999,"REV_AT_EPOCH":5326,"BSTAR":0.0010546642,"MEAN_MOTION_DOT":0.00031012,"MEAN_MOTION_DDOT":0}]
